[{"OBJECT_NAME":"STARLINK-2380","OBJECT_ID":"2021-018N","EPOCH":"2026-03-10T00:00:02.999808","MEAN_MOTION":15.13878952,"ECCENTRICITY":0.00017365,"INCLINATION":53.0862,"RA_OF_ASC_NODE":230.0961,"ARG_OF_PERICENTER":70.6216,"MEAN_ANOMALY":14.3267,"EPHEMERIS_TYPE":0,"CLASSIFICATION_TYPE":"U","NORAD_CAT_ID":47799,"ELEMENT_SET_NO":999,"REV_AT_EPOCH":569,"BSTAR":0.058689592,"MEAN_MOTION_DOT":0.0117011,"MEAN_MOTION_DDOT":0},{"OBJECT_NAME":"HAWK-13A","OBJECT_ID":"2026-004AF","EPOCH":"2026-03-09T21:39:12.868128","MEAN_MOTION":15.18213262,"ECCENTRICITY":0.00045521,"INCLINATION":97.4446,"RA_OF_ASC_NODE":69.2716,"ARG_OF_PERICENTER":336.6017,"MEAN_ANOMALY":23.5009,"EPHEMERIS_TYPE":0,"CLASSIFICATION_TYPE":"U","NORAD_CAT_ID":67392,"ELEMENT_SET_NO":999,"REV_AT_EPOCH":869,"BSTAR":0.00033139107,"MEAN_MOTION_DOT":6.715e-5,"MEAN_MOTION_DDOT":0}]
